OBJECT_NAME,OBJECT_ID,EPOCH,MEAN_MOTION,ECCENTRICITY,INCLINATION,RA_OF_ASC_NODE,ARG_OF_PERICENTER,MEAN_ANOMALY,EPHEMERIS_TYPE,CLASSIFICATION_TYPE,NORAD_CAT_ID,ELEMENT_SET_NO,REV_AT_EPOCH,BSTAR,MEAN_MOTION_DOT,MEAN_MOTION_DDOT
STARLINK-2643,2021-038Q,2026-06-26T08:18:09.141696,15.31703440,.0001092,53.1585,199.8828,72.2954,287.8166,0,U,48367,999,28390,-.469E-5,-.511E-5,0
STARLINK-2623,2021-038R,2026-06-26T09:25:51.611808,15.31670397,.0000857,53.1575,202.6413,84.6114,275.4985,0,U,48368,999,28387,-.13464E-3,-.4536E-4,0
STARLINK-2621,2021-038T,2026-06-26T09:05:35.441088,15.31696451,.0001228,53.1578,202.0949,93.9710,266.1432,0,U,48370,999,28387,-.14559E-4,-.817E-5,0
STARLINK-2589,2021-038U,2026-06-26T09:19:04.497600,15.31689713,.0001359,53.1584,202.1868,102.8114,257.3039,0,U,48371,999,28387,.19972E-3,.5835E-4,0
STARLINK-2609,2021-038W,2026-06-26T08:04:45.027264,15.31697964,.0001216,53.1581,200.0177,80.5279,279.5860,0,U,48373,999,28390,.23315E-4,.358E-5,0
STARLINK-2604,2021-038X,2026-06-26T08:45:27.125856,15.31702716,.0000841,53.1551,202.1823,96.7801,263.3296,0,U,48374,999,28387,-.27792E-4,-.1227E-4,0
STARLINK-2603,2021-038Y,2026-06-26T08:45:57.295872,15.31700206,.0001015,53.1579,202.2036,87.2852,272.8265,0,U,48375,999,28387,.4871E-5,-.214E-5,0
STARLINK-2610,2021-038Z,2026-06-26T16:25:46.540416,15.69419046,.0003183,53.1558,192.7906,38.8604,321.2642,0,U,48376,999,28403,.65644E-3,.7875E-3,0
STARLINK-2499,2021-038AA,2026-06-26T08:38:45.564576,15.31700679,.0001182,53.1566,202.2817,84.3050,275.8086,0,U,48377,999,28387,-.76388E-5,-.602E-5,0
STARLINK-2526,2021-038AB,2026-06-26T07:24:58.145184,15.31696651,.00014,53.1578,202.6792,122.3894,237.7243,0,U,48378,999,28386,.96342E-5,-.66E-6,0
STARLINK-2612,2021-038AC,2026-06-26T08:11:30.244992,15.31700047,.0000577,53.1576,200.2593,58.5422,301.5635,0,U,48379,999,28390,-.90364E-5,-.645E-5,0
STARLINK-2614,2021-038AD,2026-06-26T11:32:49.675200,15.31699840,.000124,53.1573,199.4882,89.1308,270.9836,0,U,48380,999,28392,-.25597E-5,-.445E-5,0
STARLINK-2630,2021-038AE,2026-06-26T07:58:35.632704,15.31698331,.0001456,53.1575,202.9073,54.4314,305.6823,0,U,48381,999,28386,.29968E-4,.565E-5,0
STARLINK-2585,2021-038AF,2026-06-26T08:12:24.735744,15.31689598,.0000584,53.1574,202.3010,71.3005,288.8060,0,U,48382,999,28387,-.23284E-4,-.1087E-4,0
STARLINK-2598,2021-038AJ,2026-06-26T08:31:34.978080,15.31701466,.0001183,53.1581,199.8634,69.4475,290.6654,0,U,48385,999,28513,-.20989E-5,-.43E-5,0
STARLINK-2606,2021-038AK,2026-06-26T07:57:33.510240,15.31703521,.000125,53.1575,200.0983,80.8007,279.3136,0,U,48386,999,28389,-.29E-4,-.1265E-4,0
STARLINK-2594,2021-038AM,2026-06-26T08:04:14.435616,15.31695433,.0001325,53.1573,199.8591,88.5556,271.5598,0,U,48388,999,28390,.10348E-3,.2847E-4,0
STARLINK-2586,2021-038AP,2026-06-26T17:30:48.805920,15.31697289,.0001259,53.1570,185.3593,95.8007,264.3137,0,U,48390,999,28536,.3834E-5,-.246E-5,0
STARLINK-2607,2021-038AQ,2026-06-26T07:12:55.471392,15.31717021,.0001101,53.1568,187.7095,71.7845,288.3276,0,U,48391,999,28529,.11523E-3,.3214E-4,0
STARLINK-2605,2021-038AR,2026-06-26T07:40:10.973280,15.31704556,.0001177,53.1568,187.1611,80.6150,279.4984,0,U,48392,999,28530,-.61712E-4,-.228E-4,0
STARLINK-2574,2021-038AU,2026-06-26T17:24:32.362848,15.31706534,.0001446,53.1591,187.6309,100.4492,259.6672,0,U,48395,999,28533,-.43085E-4,-.1702E-4,0
STARLINK-2575,2021-038AV,2026-06-26T07:20:02.315040,15.31701001,.0001189,53.1566,187.1833,82.1746,277.9390,0,U,48396,999,28530,.10685E-4,-.34E-6,0
STARLINK-2590,2021-038AW,2026-06-26T07:33:29.003328,15.31700754,.0001058,53.1555,187.2697,71.4062,288.7054,0,U,48397,999,28530,-.14585E-4,-.818E-5,0
STARLINK-2588,2021-038AX,2026-06-26T08:56:40.493760,15.21087109,.0004227,53.0698,202.3300,64.3129,295.8302,0,U,48398,999,28507,.1078E-2,.24026E-3,0
STARLINK-2587,2021-038AY,2026-06-26T07:13:21.369792,15.31693960,.0001371,53.1565,187.2662,89.0031,271.1127,0,U,48399,999,28529,.17415E-3,.5041E-4,0
STARLINK-2576,2021-038AZ,2026-06-26T17:10:42.254112,15.31695216,.0000853,53.1551,185.6286,75.9741,284.1355,0,U,48400,999,28414,.24006E-3,.709E-4,0
STARLINK-2571,2021-038BA,2026-06-26T07:06:12.157056,15.31706207,.0001163,53.1565,187.6163,79.4025,280.7107,0,U,48401,999,28407,.25847E-4,.437E-5,0
STARLINK-2593,2021-038BD,2026-06-26T07:06:40.745088,15.31670121,.0001399,53.1581,187.3914,85.0797,275.0364,0,U,48404,999,28408,-.13118E-3,-.443E-4,0
STARLINK-2570,2021-038BE,2026-06-26T07:26:49.169184,15.31700907,.0001127,53.1584,187.5001,78.7796,281.3332,0,U,48405,999,28407,-.87466E-5,-.636E-5,0
STARLINK-2568,2021-038BF,2026-06-26T06:40:26.238144,15.31705454,.0001228,53.1582,190.6492,83.9922,276.1219,0,U,48406,999,28403,.49824E-4,.1181E-4,0
