STARLINK-2643           
1 48367U 21038Q   26177.34593914 -.00000511  00000+0 -46900-5 0  9995
2 48367  53.1585 199.8828 0001092  72.2954 287.8166 15.31703440283901
STARLINK-2623           
1 48368U 21038R   26177.39295847 -.00004536  00000+0 -13464-3 0  9993
2 48368  53.1575 202.6413 0000857  84.6114 275.4985 15.31670397283879
STARLINK-2621           
1 48370U 21038T   26177.37888242 -.00000817  00000+0 -14559-4 0  9996
2 48370  53.1578 202.0949 0001228  93.9710 266.1432 15.31696451283874
STARLINK-2589           
1 48371U 21038U   26177.38824650  .00005835  00000+0  19972-3 0  9997
2 48371  53.1584 202.1868 0001359 102.8114 257.3039 15.31689713283874
STARLINK-2609           
1 48373U 21038W   26177.33663226  .00000358  00000+0  23315-4 0  9996
2 48373  53.1581 200.0177 0001216  80.5279 279.5860 15.31697964283908
STARLINK-2604           
1 48374U 21038X   26177.36489729 -.00001227  00000+0 -27792-4 0  9995
2 48374  53.1551 202.1823 0000841  96.7801 263.3296 15.31702716283872
STARLINK-2603           
1 48375U 21038Y   26177.36524648 -.00000214  00000+0  48710-5 0  9994
2 48375  53.1579 202.2036 0001015  87.2852 272.8265 15.31700206283878
STARLINK-2610           
1 48376U 21038Z   26177.68456644  .00078750  00000+0  65644-3 0  9992
2 48376  53.1558 192.7906 0003183  38.8604 321.2642 15.69419046284037
STARLINK-2499           
1 48377U 21038AA  26177.36024959 -.00000602  00000+0 -76388-5 0  9990
2 48377  53.1566 202.2817 0001182  84.3050 275.8086 15.31700679283874
STARLINK-2526           
1 48378U 21038AB  26177.30900631 -.00000066  00000+0  96342-5 0  9990
2 48378  53.1578 202.6792 0001400 122.3894 237.7243 15.31696651283861
STARLINK-2612           
1 48379U 21038AC  26177.34132228 -.00000645  00000+0 -90364-5 0  9996
2 48379  53.1576 200.2593 0000577  58.5422 301.5635 15.31700047283909
STARLINK-2614           
1 48380U 21038AD  26177.48113050 -.00000445  00000+0 -25597-5 0  9999
2 48380  53.1573 199.4882 0001240  89.1308 270.9836 15.31699840283921
STARLINK-2630           
1 48381U 21038AE  26177.33235686  .00000565  00000+0  29968-4 0  9990
2 48381  53.1575 202.9073 0001456  54.4314 305.6823 15.31698331283866
STARLINK-2585           
1 48382U 21038AF  26177.34195296 -.00001087  00000+0 -23284-4 0  9991
2 48382  53.1574 202.3010 0000584  71.3005 288.8060 15.31689598283878
STARLINK-2598           
1 48385U 21038AJ  26177.35526595 -.00000430  00000+0 -20989-5 0  9996
2 48385  53.1581 199.8634 0001183  69.4475 290.6654 15.31701466285136
STARLINK-2606           
1 48386U 21038AK  26177.33163785 -.00001265  00000+0 -29000-4 0  9992
2 48386  53.1575 200.0983 0001250  80.8007 279.3136 15.31703521283899
STARLINK-2594           
1 48388U 21038AM  26177.33627819  .00002847  00000+0  10348-3 0  9996
2 48388  53.1573 199.8591 0001325  88.5556 271.5598 15.31695433283906
STARLINK-2586           
1 48390U 21038AP  26177.72973155 -.00000246  00000+0  38340-5 0  9995
2 48390  53.1570 185.3593 0001259  95.8007 264.3137 15.31697289285368
STARLINK-2607           
1 48391U 21038AQ  26177.30064203  .00003214  00000+0  11523-3 0  9994
2 48391  53.1568 187.7095 0001101  71.7845 288.3276 15.31717021285297
STARLINK-2605           
1 48392U 21038AR  26177.31957145 -.00002280  00000+0 -61712-4 0  9992
2 48392  53.1568 187.1611 0001177  80.6150 279.4984 15.31704556285305
STARLINK-2574           
1 48395U 21038AU  26177.72537457 -.00001702  00000+0 -43085-4 0  9991
2 48395  53.1591 187.6309 0001446 100.4492 259.6672 15.31706534285337
STARLINK-2575           
1 48396U 21038AV  26177.30558235 -.00000034  00000+0  10685-4 0  9999
2 48396  53.1566 187.1833 0001189  82.1746 277.9390 15.31701001285300
STARLINK-2590           
1 48397U 21038AW  26177.31491902 -.00000818  00000+0 -14585-4 0  9992
2 48397  53.1555 187.2697 0001058  71.4062 288.7054 15.31700754285306
STARLINK-2588           
1 48398U 21038AX  26177.37269090  .00024026  00000+0  10780-2 0  9996
2 48398  53.0698 202.3300 0004227  64.3129 295.8302 15.21087109285070
STARLINK-2587           
1 48399U 21038AY  26177.30094178  .00005041  00000+0  17415-3 0  9992
2 48399  53.1565 187.2662 0001371  89.0031 271.1127 15.31693960285295
STARLINK-2576           
1 48400U 21038AZ  26177.71576683  .00007090  00000+0  24006-3 0  9996
2 48400  53.1551 185.6286 0000853  75.9741 284.1355 15.31695216284149
STARLINK-2571           
1 48401U 21038BA  26177.29597404  .00000437  00000+0  25847-4 0  9997
2 48401  53.1565 187.6163 0001163  79.4025 280.7107 15.31706207284072
STARLINK-2593           
1 48404U 21038BD  26177.29630492 -.00004430  00000+0 -13118-3 0  9991
2 48404  53.1581 187.3914 0001399  85.0797 275.0364 15.31670121284082
STARLINK-2570           
1 48405U 21038BE  26177.31029131 -.00000636  00000+0 -87466-5 0  9990
2 48405  53.1584 187.5001 0001127  78.7796 281.3332 15.31700907284072
STARLINK-2568           
1 48406U 21038BF  26177.27808146  .00001181  00000+0  49824-4 0  9996
2 48406  53.1582 190.6492 0001228  83.9922 276.1219 15.31705454284035
